FENGYUN 1C DEB          
1 41826U 99025EYD 26061.62168639  .00002885  00000+0  12500-2 0  9994
2 41826  98.7245 131.8666 0052561 353.9000   6.1533 14.24315306484977
FENGYUN 1C DEB          
1 41827U 99025EYE 26064.64117238  .00003912  00000+0  16331-2 0  9997
2 41827  98.7327 138.5809 0054335 334.4391  25.4104 14.25958339485126
FENGYUN 1C DEB          
1 41828U 99025EYF 26064.32002495  .00024056  00000+0  55317-2 0  9990
2 41828  98.9203 202.6543 0035922 278.3639  81.3485 14.54997275486636
FENGYUN 1C DEB          
1 41829U 99025EYG 26064.69328446  .00004156  00000+0  17421-2 0  9991
2 41829  98.7351 138.6303 0052257 338.6959  21.2045 14.25772190484892
FENGYUN 1C DEB          
1 41830U 99025EYH 26064.15747874  .00003851  00000+0  15736-2 0  9992
2 41830  98.7436 141.1306 0050594 337.8738  22.0259 14.27178205484499
FENGYUN 1C DEB          
1 41831U 99025EYJ 26064.65450954  .00003655  00000+0  15512-2 0  9992
2 41831  98.7240 136.0621 0052788 341.9900  17.9407 14.25196667484409
FENGYUN 1C DEB          
1 41832U 99025EYK 26064.66223956  .00003722  00000+0  15892-2 0  9990
2 41832  98.7187 133.1449 0052079 346.6410  13.3387 14.24892425485319
FENGYUN 1C DEB          
1 41833U 99025EYL 26064.17717394  .00004071  00000+0  16832-2 0  9994
2 41833  98.7381 138.5999 0050528 345.1745  14.7950 14.26536816485397
FENGYUN 1C DEB          
1 43213U 99025EYM 26062.63871288  .00003353  00000+0  14463-2 0  9990
2 43213  98.7252 131.5078 0051661 354.8483   5.2158 14.24452641415247
FENGYUN 1C DEB          
1 43214U 99025EYN 26062.14552978  .00003085  00000+0  13248-2 0  9991
2 43214  98.7273 131.3802 0051980 355.6681   4.4042 14.24740472415488
FENGYUN 1C DEB          
1 43358U 99025EYP 26064.76801211  .00001395  00000+0  17801-2 0  9998
2 43358  98.6853 178.2165 0360325 352.9005   6.7102 13.40623958548438
FENGYUN 1C DEB          
1 43359U 99025EYQ 26064.17831674  .00006482  00000+0  27473-2 0  9998
2 43359  99.0461 151.5356 0077167 139.4343 221.2620 14.24139715489223
FENGYUN 1C DEB          
1 45526U 99025EYR 26064.63239622  .00004399  00000+0  18122-2 0  9998
2 45526  98.7540 141.8060 0050237 342.9195  17.0292 14.26697273445581
FENGYUN 1C DEB          
1 45527U 99025EYS 26064.64767772  .00003787  00000+0  16090-2 0  9994
2 45527  98.7280 135.8518 0051686 346.8552  13.1277 14.25151233407604
FENGYUN 1C DEB          
1 46439U 99025EYU 26062.19431110  .00000575  00000+0  25745-3 0  9999
2 46439  98.5342  51.5745 0119581 172.1063 188.2035 14.22437338615074
FENGYUN 1C DEB          
1 46440U 99025EYV 26055.34152845  .00000658  00000+0  28159-3 0  9999
2 46440  98.5850  85.2609 0173828 282.3971 144.0869 14.20458008634148
