[{"OBJECT_NAME":"FENGYUN 1C DEB","OBJECT_ID":"1999-025EYD","EPOCH":"2026-03-02T14:55:13.704096","MEAN_MOTION":14.24315306,"ECCENTRICITY":0.0052561,"INCLINATION":98.7245,"RA_OF_ASC_NODE":131.8666,"ARG_OF_PERICENTER":353.9,"MEAN_ANOMALY":6.1533,"EPHEMERIS_TYPE":0,"CLASSIFICATION_TYPE":"U","NORAD_CAT_ID":41826,"ELEMENT_SET_NO":999,"REV_AT_EPOCH":48497,"BSTAR":0.00125,"MEAN_MOTION_DOT":2.885e-5,"MEAN_MOTION_DDOT":0},{"OBJECT_NAME":"FENGYUN 1C DEB","OBJECT_ID":"1999-025EYE","EPOCH":"2026-03-05T15:23:17.293632","MEAN_MOTION":14.25958339,"ECCENTRICITY":0.0054335,"INCLINATION":98.7327,"RA_OF_ASC_NODE":138.5809,"ARG_OF_PERICENTER":334.4391,"MEAN_ANOMALY":25.4104,"EPHEMERIS_TYPE":0,"CLASSIFICATION_TYPE":"U","NORAD_CAT_ID":41827,"ELEMENT_SET_NO":999,"REV_AT_EPOCH":48512,"BSTAR":0.0016331,"MEAN_MOTION_DOT":3.912e-5,"MEAN_MOTION_DDOT":0},{"OBJECT_NAME":"FENGYUN 1C DEB","OBJECT_ID":"1999-025EYF","EPOCH":"2026-03-05T07:40:50.155680","MEAN_MOTION":14.54997275,"ECCENTRICITY":0.0035922,"INCLINATION":98.9203,"RA_OF_ASC_NODE":202.6543,"ARG_OF_PERICENTER":278.3639,"MEAN_ANOMALY":81.3485,"EPHEMERIS_TYPE":0,"CLASSIFICATION_TYPE":"U","NORAD_CAT_ID":41828,"ELEMENT_SET_NO":999,"REV_AT_EPOCH":48663,"BSTAR":0.0055317,"MEAN_MOTION_DOT":0.00024056,"MEAN_MOTION_DDOT":0},{"OBJECT_NAME":"FENGYUN 1C DEB","OBJECT_ID":"1999-025EYG","EPOCH":"2026-03-05T16:38:19.777344","MEAN_MOTION":14.2577219,"ECCENTRICITY":0.0052257,"INCLINATION":98.7351,"RA_OF_ASC_NODE":138.6303,"ARG_OF_PERICENTER":338.6959,"MEAN_ANOMALY":21.2045,"EPHEMERIS_TYPE":0,"CLASSIFICATION_TYPE":"U","NORAD_CAT_ID":41829,"ELEMENT_SET_NO":999,"REV_AT_EPOCH":48489,"BSTAR":0.0017421,"MEAN_MOTION_DOT":4.156e-5,"MEAN_MOTION_DDOT":0},{"OBJECT_NAME":"FENGYUN 1C DEB","OBJECT_ID":"1999-025EYH","EPOCH":"2026-03-05T03:46:46.163136","MEAN_MOTION":14.27178205,"ECCENTRICITY":0.00505949,"INCLINATION":98.7436,"RA_OF_ASC_NODE":141.1306,"ARG_OF_PERICENTER":337.8738,"MEAN_ANOMALY":22.0259,"EPHEMERIS_TYPE":0,"CLASSIFICATION_TYPE":"U","NORAD_CAT_ID":41830,"ELEMENT_SET_NO":999,"REV_AT_EPOCH":48449,"BSTAR":0.0015735603,"MEAN_MOTION_DOT":3.851e-5,"MEAN_MOTION_DDOT":0},{"OBJECT_NAME":"FENGYUN 1C DEB","OBJECT_ID":"1999-025EYJ","EPOCH":"2026-03-05T15:42:29.624256","MEAN_MOTION":14.25196667,"ECCENTRICITY":0.0052788,"INCLINATION":98.724,"RA_OF_ASC_NODE":136.0621,"ARG_OF_PERICENTER":341.99,"MEAN_ANOMALY":17.9407,"EPHEMERIS_TYPE":0,"CLASSIFICATION_TYPE":"U","NORAD_CAT_ID":41831,"ELEMENT_SET_NO":999,"REV_AT_EPOCH":48440,"BSTAR":0.0015512,"MEAN_MOTION_DOT":3.655e-5,"MEAN_MOTION_DDOT":0},{"OBJECT_NAME":"FENGYUN 1C DEB","OBJECT_ID":"1999-025EYK","EPOCH":"2026-03-05T15:53:37.497984","MEAN_MOTION":14.24892425,"ECCENTRICITY":0.0052079,"INCLINATION":98.7187,"RA_OF_ASC_NODE":133.1449,"ARG_OF_PERICENTER":346.641,"MEAN_ANOMALY":13.3387,"EPHEMERIS_TYPE":0,"CLASSIFICATION_TYPE":"U","NORAD_CAT_ID":41832,"ELEMENT_SET_NO":999,"REV_AT_EPOCH":48531,"BSTAR":0.0015892,"MEAN_MOTION_DOT":3.722e-5,"MEAN_MOTION_DDOT":0},{"OBJECT_NAME":"FENGYUN 1C DEB","OBJECT_ID":"1999-025EYL","EPOCH":"2026-03-05T04:15:07.828416","MEAN_MOTION":14.26536816,"ECCENTRICITY":0.0050528,"INCLINATION":98.7381,"RA_OF_ASC_NODE":138.5999,"ARG_OF_PERICENTER":345.1745,"MEAN_ANOMALY":14.795,"EPHEMERIS_TYPE":0,"CLASSIFICATION_TYPE":"U","NORAD_CAT_ID":41833,"ELEMENT_SET_NO":999,"REV_AT_EPOCH":48539,"BSTAR":0.0016832,"MEAN_MOTION_DOT":4.071e-5,"MEAN_MOTION_DDOT":0},{"OBJECT_NAME":"FENGYUN 1C DEB","OBJECT_ID":"1999-025EYM","EPOCH":"2026-03-03T15:19:44.792832","MEAN_MOTION":14.24452641,"ECCENTRICITY":0.0051661,"INCLINATION":98.7252,"RA_OF_ASC_NODE":131.5078,"ARG_OF_PERICENTER":354.8483,"MEAN_ANOMALY":5.2158,"EPHEMERIS_TYPE":0,"CLASSIFICATION_TYPE":"U","NORAD_CAT_ID":43213,"ELEMENT_SET_NO":999,"REV_AT_EPOCH":41524,"BSTAR":0.0014463,"MEAN_MOTION_DOT":3.353e-5,"MEAN_MOTION_DDOT":0},{"OBJECT_NAME":"FENGYUN 1C DEB","OBJECT_ID":"1999-025EYN","EPOCH":"2026-03-03T03:29:33.772992","MEAN_MOTION":14.24740472,"ECCENTRICITY":0.00519803,"INCLINATION":98.7273,"RA_OF_ASC_NODE":131.3802,"ARG_OF_PERICENTER":355.6681,"MEAN_ANOMALY":4.4042,"EPHEMERIS_TYPE":0,"CLASSIFICATION_TYPE":"U","NORAD_CAT_ID":43214,"ELEMENT_SET_NO":999,"REV_AT_EPOCH":41548,"BSTAR":0.0013247533,"MEAN_MOTION_DOT":3.085e-5,"MEAN_MOTION_DDOT":0},{"OBJECT_NAME":"FENGYUN 1C DEB","OBJECT_ID":"1999-025EYP","EPOCH":"2026-03-05T18:25:56.246304","MEAN_MOTION":13.40623958,"ECCENTRICITY":0.0360325,"INCLINATION":98.6853,"RA_OF_ASC_NODE":178.2165,"ARG_OF_PERICENTER":352.9005,"MEAN_ANOMALY":6.7102,"EPHEMERIS_TYPE":0,"CLASSIFICATION_TYPE":"U","NORAD_CAT_ID":43358,"ELEMENT_SET_NO":999,"REV_AT_EPOCH":54843,"BSTAR":0.0017801,"MEAN_MOTION_DOT":1.395e-5,"MEAN_MOTION_DDOT":0},{"OBJECT_NAME":"FENGYUN 1C DEB","OBJECT_ID":"1999-025EYQ","EPOCH":"2026-03-05T04:16:46.566336","MEAN_MOTION":14.24139715,"ECCENTRICITY":0.0077167,"INCLINATION":99.0461,"RA_OF_ASC_NODE":151.5356,"ARG_OF_PERICENTER":139.4343,"MEAN_ANOMALY":221.262,"EPHEMERIS_TYPE":0,"CLASSIFICATION_TYPE":"U","NORAD_CAT_ID":43359,"ELEMENT_SET_NO":999,"REV_AT_EPOCH":48922,"BSTAR":0.0027472583,"MEAN_MOTION_DOT":6.482e-5,"MEAN_MOTION_DDOT":0},{"OBJECT_NAME":"FENGYUN 1C DEB","OBJECT_ID":"1999-025EYR","EPOCH":"2026-03-05T15:10:39.033408","MEAN_MOTION":14.26697273,"ECCENTRICITY":0.0050237,"INCLINATION":98.754,"RA_OF_ASC_NODE":141.806,"ARG_OF_PERICENTER":342.9195,"MEAN_ANOMALY":17.0292,"EPHEMERIS_TYPE":0,"CLASSIFICATION_TYPE":"U","NORAD_CAT_ID":45526,"ELEMENT_SET_NO":999,"REV_AT_EPOCH":44558,"BSTAR":0.0018122,"MEAN_MOTION_DOT":4.399e-5,"MEAN_MOTION_DDOT":0},{"OBJECT_NAME":"FENGYUN 1C DEB","OBJECT_ID":"1999-025EYS","EPOCH":"2026-03-05T15:32:39.355008","MEAN_MOTION":14.25151233,"ECCENTRICITY":0.0051686,"INCLINATION":98.728,"RA_OF_ASC_NODE":135.8518,"ARG_OF_PERICENTER":346.8552,"MEAN_ANOMALY":13.1277,"EPHEMERIS_TYPE":0,"CLASSIFICATION_TYPE":"U","NORAD_CAT_ID":45527,"ELEMENT_SET_NO":999,"REV_AT_EPOCH":40760,"BSTAR":0.001609,"MEAN_MOTION_DOT":3.787e-5,"MEAN_MOTION_DDOT":0},{"OBJECT_NAME":"FENGYUN 1C DEB","OBJECT_ID":"1999-025EYU","EPOCH":"2026-03-03T04:39:48.479040","MEAN_MOTION":14.22437338,"ECCENTRICITY":0.01195819,"INCLINATION":98.5342,"RA_OF_ASC_NODE":51.5745,"ARG_OF_PERICENTER":172.1063,"MEAN_ANOMALY":188.2035,"EPHEMERIS_TYPE":0,"CLASSIFICATION_TYPE":"U","NORAD_CAT_ID":46439,"ELEMENT_SET_NO":999,"REV_AT_EPOCH":61507,"BSTAR":0.00025744914,"MEAN_MOTION_DOT":5.75e-6,"MEAN_MOTION_DDOT":0},{"OBJECT_NAME":"FENGYUN 1C DEB","OBJECT_ID":"1999-025EYV","EPOCH":"2026-02-24T08:11:48.058080","MEAN_MOTION":14.20458008,"ECCENTRICITY":0.01738281,"INCLINATION":98.585,"RA_OF_ASC_NODE":85.2609,"ARG_OF_PERICENTER":282.3971,"MEAN_ANOMALY":144.0869,"EPHEMERIS_TYPE":0,"CLASSIFICATION_TYPE":"U","NORAD_CAT_ID":46440,"ELEMENT_SET_NO":999,"REV_AT_EPOCH":63414,"BSTAR":0.00028158614,"MEAN_MOTION_DOT":6.58e-6,"MEAN_MOTION_DDOT":0}]
